NORAD_CAT_ID,OBJECT_NAME,OBJECT_TYPE,EPOCH,MEAN_MOTION,ECCENTRICITY,INCLINATION,RA_OF_ASC_NODE,ARG_OF_PERICENTER,MEAN_ANOMALY,BSTAR,MEAN_MOTION_DOT,MEAN_MOTION_DDOT,TLE_LINE0,TLE_LINE1,TLE_LINE2,SEMIMAJOR_AXIS,PERIOD,APOGEE,PERIGEE,DECAYED
52480.0,STARLINK-3839,PAYLOAD,2022-05-13 14:00:01,15.80242479,0.0001716,53.2176,230.8617,29.2107,311.9533,-0.0050803,-0.00880834,0.0,0 STARLINK-3839,1 52480U 22049AF  22133.58334491 -.00880834  00000-0 -50803-2 0  9995,2 52480  53.2176 230.8617 0001716  29.2107 311.9533 15.80242479  1309,6707.891,91.125,330.907,328.605,0.0
52480.0,STARLINK-3839,PAYLOAD,2022-05-13 16:00:00,15.80001509,0.0001629,53.2166,230.4446,37.2016,58.325,-0.0044127,-0.00766855,0.0,0 STARLINK-3839,1 52480U 22049AF  22133.66667824 -.00766855  00000-0 -44127-2 0  9991,2 52480  53.2166 230.4446 0001629  37.2016  58.3250 15.80001509  1311,6708.573,91.139,331.531,329.346,0.0
52480.0,STARLINK-3839,PAYLOAD,2022-05-14 06:00:00,15.78981739,0.0001522,53.2174,227.529,42.3849,132.029,-0.0053462,-0.0087526,0.0,0 STARLINK-3839,1 52480U 22049AF  22134.25001157 -.00875260  00000-0 -53462-2 0  9991,2 52480  53.2174 227.5290 0001522  42.3849 132.0290 15.78981739  1400,6711.4609999999975,91.198,334.348,332.305,0.0
52480.0,STARLINK-3839,PAYLOAD,2022-05-14 14:00:01,15.78353801,0.0001735,53.2174,225.8682,33.5665,236.3359,-0.0055262,-0.00878925,0.0,0 STARLINK-3839,1 52480U 22049AF  22134.58334491 -.00878925  00000-0 -55262-2 0  9998,2 52480  53.2174 225.8682 0001735  33.5665 236.3359 15.78353801  1306,6713.241,91.234,336.271,333.94199999999995,0.0
52480.0,STARLINK-3839,PAYLOAD,2022-05-14 22:00:00,15.7772426,0.0001476,53.2175,224.2058,33.4437,331.1930000000001,-0.0056778,-0.00877703,0.0,0 STARLINK-3839,1 52480U 22049AF  22134.91667824 -.00877703  00000-0 -56778-2 0  9990,2 52480  53.2175 224.2058 0001476  33.4437 331.1930 15.77724260  1304,6715.026999999999,91.271,337.8830000000001,335.901,0.0
52480.0,STARLINK-3839,PAYLOAD,2022-05-15 06:00:00,15.77092459,0.0001837,53.2177,222.5449,27.2508,71.3646,-0.0058041,-0.0087275,0.0,0 STARLINK-3839,1 52480U 22049AF  22135.25001157 -.00872750  00000-0 -58041-2 0  9991,2 52480  53.2177 222.5449 0001837  27.2508  71.3646 15.77092459  1565,6716.82,91.307,339.9190000000001,337.452,0.0
52480.0,STARLINK-3839,PAYLOAD,2022-05-15 14:00:01,15.76464559,0.0001987,53.2176,220.8887,30.5657,161.335,-0.0059898999999999,-0.00875525,0.0,0 STARLINK-3839,1 52480U 22049AF  22135.58335648 -.00875525  00000-0 -59899-2 0  9997,2 52480  53.2176 220.8887 0001987  30.5657 161.3350 15.76464559  1306,6718.604,91.344,341.8040000000001,339.134,0.0
52480.0,STARLINK-3839,PAYLOAD,2022-05-15 22:00:00,15.75837301,0.0001438,53.2174,219.2307,41.136,243.1641,-0.0061865,-0.00878842,0.0,0 STARLINK-3839,1 52480U 22049AF  22135.91667824 -.00878842  00000-0 -61865-2 0  9999,2 52480  53.2174 219.2307 0001438  41.1360 243.1641 15.75837301  1303,6720.387,91.38,343.218,341.285,0.0
52480.0,STARLINK-3839,PAYLOAD,2022-05-16 06:00:02,15.75205572,0.0001425,53.2175,217.5747,35.9041,340.1717,-0.0063229,-0.00874012,0.0,0 STARLINK-3839,1 52480U 22049AF  22136.25002315 -.00874012  00000-0 -63229-2 0  9996,2 52480  53.2175 217.5747 0001425  35.9041 340.1717 15.75205572  1723,6722.183000000001,91.417,345.006,343.09,0.0
52480.0,STARLINK-3839,PAYLOAD,2022-05-16 14:00:01,15.74576058,0.0002073,53.2175,215.9232,24.4732,82.4883,-0.0064956999999999,-0.00873697,0.0,0 STARLINK-3839,1 52480U 22049AF  22136.58334491 -.00873697  00000-0 -64957-2 0  9992,2 52480  53.2175 215.9232 0002073  24.4732  82.4883 15.74576058  1307,6723.975,91.453,347.2340000000001,344.446,0.0
52480.0,STARLINK-3839,PAYLOAD,2022-05-16 22:00:00,15.73918816,0.0001781,53.2176,214.2695,33.8312,163.3334,-0.0061578,-0.0081089,0.0,0 STARLINK-3839,1 52480U 22049AF  22136.91667824 -.00810890  00000-0 -61578-2 0  9990,2 52480  53.2176 214.2695 0001781  33.8312 163.3334 15.73918816  1307,6725.847,91.491,348.909,346.514,0.0
52480.0,STARLINK-3839,PAYLOAD,2022-05-17 06:00:00,15.73217485,0.0001829,53.2178,212.6184,34.6758,251.9314,-0.00015326,-0.00022091,0.0,0 STARLINK-3839,1 52480U 22049AF  22137.25001157 -.00022091  00000-0 -15326-3 0  9998,2 52480  53.2178 212.6184 0001829  34.6758 251.9314 15.73217485  1878,6727.845,91.532,350.941,348.48,0.0
52480.0,STARLINK-3839,PAYLOAD,2022-05-17 14:00:01,15.73161596,0.0001846,53.2168,210.9703,337.4676,38.1652,0.0004851,0.00067902,0.0,0 STARLINK-3839,1 52480U 22049AF  22137.58335648  .00067902  00000-0  48510-3 0  9998,2 52480  53.2168 210.9703 0001846 337.4676  38.1652 15.73161596  1306,6728.005,91.535,351.112,348.62800000000016,0.0
52480.0,STARLINK-3839,PAYLOAD,2022-05-17 20:00:01,15.73272982,0.0001749,53.214,209.7284,325.7051,26.6782,-2.5341e-06,-9.78e-06,0.0,0 STARLINK-3839,1 52480U 22049AF  22137.83334491 -.00000978  00000-0 -25341-5 0  9992,2 52480  53.2140 209.7284 0001749 325.7051  26.6782 15.73272982  1976,6727.687,91.529,350.72900000000016,348.375,0.0
52480.0,STARLINK-3839,PAYLOAD,2022-05-17 22:00:01,15.7326535,0.0001657,53.2143,209.3153,326.0116,138.6939,0.00012796,0.00017425,0.0,0 STARLINK-3839,1 52480U 22049AF  22137.91668981  .00017425  00000-0  12796-3 0  9996,2 52480  53.2143 209.3153 0001657 326.0116 138.6939 15.73265350  1300,6727.709,91.529,350.689,348.459,0.0
52480.0,STARLINK-3839,PAYLOAD,2022-05-18 12:00:00,15.7322726,0.0001622,53.215,206.4297,353.7637,176.6556,-0.00049066,-0.00069001,0.0,0 STARLINK-3839,1 52480U 22049AF  22138.50001157 -.00069001  00000-0 -49066-3 0  9997,2 52480  53.2150 206.4297 0001622 353.7637 176.6556 15.73227260  2072,6727.816999999999,91.532,350.774,348.591,0.0
52480.0,STARLINK-3839,PAYLOAD,2022-05-18 14:00:01,15.73209045,0.0001665,53.2152,206.0177,356.8243,285.8353,-0.00037119,-0.00052413,0.0,0 STARLINK-3839,1 52480U 22049AF  22138.58334491 -.00052413  00000-0 -37119-3 0  9990,2 52480  53.2152 206.0177 0001665 356.8243 285.8353 15.73209045  1305,6727.869000000002,91.533,350.855,348.61400000000015,0.0
52480.0,STARLINK-3839,PAYLOAD,2022-05-18 22:00:00,15.73174061,0.000157,53.2151,204.3664,8.4446,3.1447,-0.00048908,-0.00068628,0.0,0 STARLINK-3839,1 52480U 22049AF  22138.91667824 -.00068628  00000-0 -48908-3 0  9999,2 52480  53.2151 204.3664 0001570   8.4446   3.1447 15.73174061  1300,6727.969,91.535,350.89,348.778,0.0
52480.0,STARLINK-3839,PAYLOAD,2022-05-19 06:00:00,15.73205689,0.0001538,53.2177,202.7213,354.6782,105.5398,-1.4569e-05,-2.665e-05,0.0,0 STARLINK-3839,1 52480U 22049AF  22139.25001157 -.00002665  00000-0 -14569-4 0  9994,2 52480  53.2177 202.7213 0001538 354.6782 105.5398 15.73205689  2194,6727.879,91.533,350.779,348.709,0.0
52480.0,STARLINK-3839,PAYLOAD,2022-05-19 14:00:01,15.73159549,0.0001951,53.2146,201.0695,16.0135,173.3464,0.00077632,0.00109576,0.0,0 STARLINK-3839,1 52480U 22049AF  22139.58335648  .00109576  00000-0  77632-3 0  9991,2 52480  53.2146 201.0695 0001951  16.0135 173.3464 15.73159549  1308,6728.011,91.536,351.18800000000016,348.56300000000016,0.0
52480.0,STARLINK-3839,PAYLOAD,2022-05-19 22:00:00,15.73252808,0.0001786,53.2142,199.4182,20.0312,258.2016,0.00018239,0.00025112,0.0,0 STARLINK-3839,1 52480U 22049AF  22139.91667824  .00025112  00000-0  18239-3 0  9993,2 52480  53.2142 199.4182 0001786  20.0312 258.2016 15.73252808  2290,6727.745,91.53,350.811,348.408,0.0
52480.0,STARLINK-3839,PAYLOAD,2022-05-20 14:00:01,15.731806099999998,0.0002166,53.2146,196.1207,27.2857,68.9357,2.7663000000000013e-05,3.26e-05,0.0,0 STARLINK-3839,1 52480U 22049AF  22140.58334491  .00003260  00000-0  27663-4 0  9991,2 52480  53.2146 196.1207 0002166  27.2857  68.9357 15.73180610  2400,6727.95,91.534,351.273,348.358,0.0
52480.0,STARLINK-3839,PAYLOAD,2022-05-20 22:00:00,15.7316163,0.0001964,53.2148,194.4692,22.2628,162.8833,4.2054e-05,5.276e-05,0.0,0 STARLINK-3839,1 52480U 22049AF  22140.91667824  .00005276  00000-0  42054-4 0  9997,2 52480  53.2148 194.4692 0001964  22.2628 162.8833 15.73161630  1309,6728.005,91.535,351.191,348.548,0.0
52480.0,STARLINK-3839,PAYLOAD,2022-05-21 06:00:00,15.73206122,0.0002325,53.2178,192.8242,39.012,234.8114,-2.1498000000000007e-05,-3.639e-05,0.0,0 STARLINK-3839,1 52480U 22049AF  22141.25001157 -.00003639  00000-0 -21498-4 0  9998,2 52480  53.2178 192.8242 0002325  39.0120 234.8114 15.73206122  2501,6727.878000000002,91.533,351.307,348.17800000000005,0.0
52480.0,STARLINK-3839,PAYLOAD,2022-05-21 14:00:01,15.73184438,0.0002196,53.2143,191.1722,18.5859,344.4452,0.00046408,0.00064976,0.0,0 STARLINK-3839,1 52480U 22049AF  22141.58335648  .00064976  00000-0  46408-3 0  9995,2 52480  53.2143 191.1722 0002196  18.5859 344.4452 15.73184438  2569,6727.94,91.534,351.282,348.327,0.0
52480.0,STARLINK-3839,PAYLOAD,2022-05-21 22:00:00,15.73220341,0.0001969,53.2143,189.5206,20.4268,71.4818,-2.8139e-05,-4.572e-05,0.0,0 STARLINK-3839,1 52480U 22049AF  22141.91667824 -.00004572  00000-0 -28139-4 0  9996,2 52480  53.2143 189.5206 0001969  20.4268  71.4818 15.73220341  1308,6727.837,91.532,351.027,348.37699999999984,0.0
52480.0,STARLINK-3839,PAYLOAD,2022-05-22 06:00:00,15.73258564,0.0002099,53.2147,187.8716,27.7794,153.0615,-0.00060682,-0.00085149,0.0,0 STARLINK-3839,1 52480U 22049AF  22142.25001157 -.00085149  00000-0 -60682-3 0  9992,2 52480  53.2147 187.8716 0002099  27.7794 153.0615 15.73258564  2668,6727.728,91.53,351.005,348.181,0.0
52480.0,STARLINK-3839,PAYLOAD,2022-05-22 14:00:01,15.73143224,0.0002349,53.2148,186.2237,23.6163,246.1796,0.00033737,0.0004688,0.0,0 STARLINK-3839,1 52480U 22049AF  22142.58334491  .00046880  00000-0  33737-3 0  9996,2 52480  53.2148 186.2237 0002349  23.6163 246.1796 15.73143224  1303,6728.057,91.536,351.50199999999984,348.342,0.0
52480.0,STARLINK-3839,PAYLOAD,2022-05-22 22:00:01,15.73181922,0.0002075,53.215,184.5721,21.9613,336.8005,-9.6239e-06,-1.971e-05,0.0,0 STARLINK-3839,1 52480U 22049AF  22142.91668981 -.00001971  00000-0 -96239-5 0  9999,2 52480  53.2150 184.5721 0002075  21.9613 336.8005 15.73181922  2771,6727.946999999999,91.534,351.208,348.416,0.0
